NORAD_CAT_ID,OBJECT_NAME,OBJECT_TYPE,EPOCH,MEAN_MOTION,ECCENTRICITY,INCLINATION,RA_OF_ASC_NODE,ARG_OF_PERICENTER,MEAN_ANOMALY,BSTAR,MEAN_MOTION_DOT,MEAN_MOTION_DDOT,TLE_LINE0,TLE_LINE1,TLE_LINE2,SEMIMAJOR_AXIS,PERIOD,APOGEE,PERIGEE,DECAYED
55930.0,STARLINK-5896,PAYLOAD,2023-05-03 20:58:25,15.69930828,0.0003548,70.0014,48.6317,263.5349,96.5443,1.9509e-05,2.134e-05,0.0,0 STARLINK-5896,1 55930U 23037S   23123.87390413  .00002134  00000-0  19509-4 0  9991,2 55930  70.0014  48.6317 0003548 263.5349  96.5443 15.69930828  7589,6737.232,91.724,361.487,356.707,0.0
55930.0,STARLINK-5896,PAYLOAD,2023-05-04 04:37:11,15.6992786,0.0003397,70.0008,47.7359,259.4544,100.6269,1.3116e-05,1.365e-05,0.0,0 STARLINK-5896,1 55930U 23037S   23124.19248858  .00001365  00000-0  13116-4 0  9995,2 55930  70.0008  47.7359 0003397 259.4544 100.6269 15.69927860  7979,6737.24,91.724,361.394,356.817,0.0
55930.0,STARLINK-5896,PAYLOAD,2023-05-04 21:26:27,15.69921817,0.0003387,70.0017,45.766,258.9111,101.1704,2.7096e-05,3.046e-05,0.0,0 STARLINK-5896,1 55930U 23037S   23124.89337669  .00003046  00000-0  27096-4 0  9991,2 55930  70.0017  45.7660 0003387 258.9111 101.1704 15.69921817  8084,6737.258,91.724,361.405,356.841,0.0
55930.0,STARLINK-5896,PAYLOAD,2023-05-05 20:22:44,15.69913219,0.0003088,70.0021,43.0805,253.1093,106.9764,5.786e-05,6.747e-05,0.0,0 STARLINK-5896,1 55930U 23037S   23125.84913035  .00006747  00000-0  57860-4 0  9997,2 55930  70.0021  43.0805 0003088 253.1093 106.9764 15.69913219  7899,6737.282,91.725,361.228,357.067,0.0
55930.0,STARLINK-5896,PAYLOAD,2023-05-05 21:54:29,15.69925186,0.0003606,70.0011,42.9015,258.1648,101.9144,9.7885e-06,9.64e-06,0.0,0 STARLINK-5896,1 55930U 23037S   23125.91284099  .00000964  00000-0  97885-5 0  9993,2 55930  70.0011  42.9015 0003606 258.1648 101.9144 15.69925186  8249,6737.248,91.724,361.542,356.684,0.0
55930.0,STARLINK-5896,PAYLOAD,2023-05-06 04:01:30,15.69921601,0.0003347,70.001,42.1835,260.055,100.0268,1.9723e-07,-1.89e-06,0.0,0 STARLINK-5896,1 55930U 23037S   23126.16770955 -.00000189  00000-0  19723-6 0  9998,2 55930  70.0010  42.1835 0003347 260.0550 100.0268 15.69921601  7947,6737.258,91.724,361.378,356.868,0.0
55930.0,STARLINK-5896,PAYLOAD,2023-05-06 20:50:45,15.69939004,0.0003863,70.0003,40.2133,262.0429,98.0328,2.2506e-05,2.496e-05,0.0,0 STARLINK-5896,1 55930U 23037S   23126.86858003  .00002496  00000-0  22506-4 0  9999,2 55930  70.0003  40.2133 0003863 262.0429  98.0328 15.69939004  8398,6737.209,91.723,361.676,356.471,0.0
55930.0,STARLINK-5896,PAYLOAD,2023-05-07 04:29:32,15.69911787,0.0003402,70.0011,39.3184,261.1423,98.9388,-2.0369e-05,-2.66e-05,0.0,0 STARLINK-5896,1 55930U 23037S   23127.18717991 -.00002660  00000-0 -20369-4 0  9995,2 55930  70.0011  39.3184 0003402 261.1423  98.9388 15.69911787  8444,6737.286,91.725,361.443,356.859,0.0
55930.0,STARLINK-5896,PAYLOAD,2023-05-07 21:18:48,15.69917708,0.0004043,70.0001,37.3476,267.7028,92.3705,5.5005e-06,4.48e-06,0.0,0 STARLINK-5896,1 55930U 23037S   23127.88806303  .00000448  00000-0  55005-5 0  9994,2 55930  70.0001  37.3476 0004043 267.7028  92.3705 15.69917708  8215,6737.269,91.725,361.858,356.411,0.0
55930.0,STARLINK-5896,PAYLOAD,2023-05-08 03:25:48,15.69927209,0.0003484,70.0005,36.6318,262.2173,97.8627,4.2791e-05,4.936e-05,0.0,0 STARLINK-5896,1 55930U 23037S   23128.14292651  .00004936  00000-0  42791-4 0  9992,2 55930  70.0005  36.6318 0003484 262.2173  97.8627 15.69927209  8596,6737.242,91.724,361.455,356.76,0.0
55930.0,STARLINK-5896,PAYLOAD,2023-05-08 20:15:04,15.69930526,0.0003536,70.0015,34.6586,254.9537,105.1268,8.7521e-06,8.4e-06,0.0,0 STARLINK-5896,1 55930U 23037S   23128.84380499  .00000840  00000-0  87521-5 0  9998,2 55930  70.0015  34.6586 0003536 254.9537 105.1268 15.69930526  8367,6737.233,91.724,361.48,356.715,0.0
55930.0,STARLINK-5896,PAYLOAD,2023-05-09 02:22:06,15.69912043,0.00037,70.0014,33.9452,253.2432,106.8358,-4.4899e-05,-5.606e-05,0.0,0 STARLINK-5896,1 55930U 23037S   23129.09868218 -.00005606  00000-0 -44899-4 0  9993,2 55930  70.0014  33.9452 0003700 253.2432 106.8358 15.69912043  8743,6737.286,91.725,361.643,356.658,0.0
55930.0,STARLINK-5896,PAYLOAD,2023-05-10 01:18:22,15.69918756,0.0003554,70.0006,31.2577,264.8127,95.2663,-5.2078e-06,-8.39e-06,0.0,0 STARLINK-5896,1 55930U 23037S   23130.05443154 -.00000839  00000-0 -52078-5 0  9991,2 55930  70.0006  31.2577 0003554 264.8127  95.2663 15.69918756  8555,6737.266,91.724,361.526,356.737,0.0
55930.0,STARLINK-5896,PAYLOAD,2023-05-10 19:39:23,15.69933041,0.0003643,70.0008,29.1068,264.7517,95.3263,2.8648e-05,3.235e-05,0.0,0 STARLINK-5896,1 55930U 23037S   23130.81902660  .00003235  00000-0  28648-4 0  9993,2 55930  70.0008  29.1068 0003643 264.7517  95.3263 15.69933041  8673,6737.226,91.724,361.545,356.636,0.0
55930.0,STARLINK-5896,PAYLOAD,2023-05-11 03:18:09,15.69933779,0.0003652,70.0015,28.2106,265.0095,95.0683,3.2939e-05,3.751e-05,0.0,0 STARLINK-5896,1 55930U 23037S   23131.13760939  .00003751  00000-0  32939-4 0  9991,2 55930  70.0015  28.2106 0003652 265.0095  95.0683 15.69933779  8726,6737.223,91.724,361.549,356.628,0.0
55930.0,STARLINK-5896,PAYLOAD,2023-05-11 23:10:56,15.69945897,0.0003875,70.0014,25.8826,265.2333,94.842,8.2702e-05,9.753e-05,0.0,0 STARLINK-5896,1 55930U 23037S   23131.96592610  .00009753  00000-0  82702-4 0  9992,2 55930  70.0014  25.8826 0003875 265.2333  94.8420 15.69945897  9193,6737.189,91.723,361.664,356.443,0.0
55930.0,STARLINK-5896,PAYLOAD,2023-05-12 02:14:26,15.69917331,0.0003296,70.0018,25.5253,266.4044,93.6775,-1.5634e-05,-2.091e-05,0.0,0 STARLINK-5896,1 55930U 23037S   23132.09336647 -.00002091  00000-0 -15634-4 0  9993,2 55930  70.0018  25.5253 0003296 266.4044  93.6775 15.69917331  8873,6737.271,91.725,361.356,356.915,0.0
55930.0,STARLINK-5896,PAYLOAD,2023-05-12 17:31:58,15.69926537,0.0003524,70.0015,23.7336,265.0699,95.0094,3.9935e-05,4.592e-05,0.0,0 STARLINK-5896,1 55930U 23037S   23132.73053255  .00004592  00000-0  39935-4 0  9991,2 55930  70.0015  23.7336 0003524 265.0699  95.0094 15.69926537  9315,6737.244,91.724,361.483,356.735,0.0
55930.0,STARLINK-5896,PAYLOAD,2023-05-13 02:42:28,15.69934845,0.0003181,70.0,22.6563,266.7487,93.3345,8.914e-05,0.00010523,0.0,0 STARLINK-5896,1 55930U 23037S   23133.11283193  .00010523  00000-0  89140-4 0  9994,2 55930  70.0000  22.6563 0003181 266.7487  93.3345 15.69934845  9031,6737.22,91.724,361.229,356.942,0.0
55930.0,STARLINK-5896,PAYLOAD,2023-05-13 19:31:45,15.6992092,0.0003591,70.002,20.6877,256.3284,103.7512,2.5517e-05,2.856e-05,0.0,0 STARLINK-5896,1 55930U 23037S   23133.81371890  .00002856  00000-0  25517-4 0  9991,2 55930  70.0020  20.6877 0003591 256.3284 103.7512 15.69920920  9147,6737.26,91.724,361.545,356.706,0.0
55930.0,STARLINK-5896,PAYLOAD,2023-05-14 01:38:45,15.69927704,0.0003081,70.0019,19.9705,254.6166,105.469,9.7192e-05,0.00011491,0.0,0 STARLINK-5896,1 55930U 23037S   23134.06858664  .00011491  00000-0  97192-4 0  9991,2 55930  70.0019  19.9705 0003081 254.6166 105.4690 15.69927704  9525,6737.241,91.724,361.182,357.03,0.0
55930.0,STARLINK-5896,PAYLOAD,2023-05-14 19:59:47,15.699331,0.0002943,70.0023,17.8242,248.433,111.6552,1.459e-05,1.543e-05,0.0,0 STARLINK-5896,1 55930U 23037S   23134.83318560  .00001543  00000-0  14590-4 0  9990,2 55930  70.0023  17.8242 0002943 248.4330 111.6552 15.69933100  9302,6737.225,91.724,361.073,357.108,0.0
55930.0,STARLINK-5896,PAYLOAD,2023-05-15 00:35:02,15.69939557,0.0003015,70.0023,17.2869,256.1025,103.9835,6.1283e-05,7.167e-05,0.0,0 STARLINK-5896,1 55930U 23037S   23135.02433367  .00007167  00000-0  61283-4 0  9994,2 55930  70.0023  17.2869 0003015 256.1025 103.9835 15.69939557  9679,6737.207,91.723,361.103,357.041,0.0
55930.0,STARLINK-5896,PAYLOAD,2023-05-15 02:06:47,15.69926125,0.0003237,70.0015,17.1035,269.0442,91.0382,4.9633e-06,3.84e-06,0.0,0 STARLINK-5896,1 55930U 23037S   23135.08805239  .00000384  00000-0  49633-5 0  9991,2 55930  70.0015  17.1035 0003237 269.0442  91.0382 15.69926125  9688,6737.245,91.724,361.291,356.93,0.0
55930.0,STARLINK-5896,PAYLOAD,2023-05-15 09:45:33,15.69929305,0.0003132,70.0025,16.2088,267.9317,92.152,2.8394e-05,3.203e-05,0.0,0 STARLINK-5896,1 55930U 23037S   23135.40663560  .00003203  00000-0  28394-4 0  9999,2 55930  70.0025  16.2088 0003132 267.9317  92.1520 15.69929305  9396,6737.236,91.724,361.211,356.991,0.0
55930.0,STARLINK-5896,PAYLOAD,2023-05-15 17:24:19,15.69917307,0.0003451,70.0021,15.3131,266.5971,93.483,-1.4149e-05,-1.913e-05,0.0,0 STARLINK-5896,1 55930U 23037S   23135.72522088 -.00001913  00000-0 -14149-4 0  9994,2 55930  70.0021  15.3131 0003451 266.5971  93.4830 15.69917307  9449,6737.271,91.725,361.461,356.811,0.0
55930.0,STARLINK-5896,PAYLOAD,2023-05-16 01:03:04,15.69924855,0.0003229,70.003,14.4171,267.8047,92.2779,5.215e-05,6.063e-05,0.0,0 STARLINK-5896,1 55930U 23037S   23136.04380504  .00006063  00000-0  52150-4 0  9998,2 55930  70.0030  14.4171 0003229 267.8047  92.2779 15.69924855  9494,6737.249,91.724,361.289,356.939,0.0
55930.0,STARLINK-5896,PAYLOAD,2023-05-16 22:27:36,15.69939945,0.0003141,70.0031,11.911,259.0711,101.0131,7.7204e-05,9.086e-05,0.0,0 STARLINK-5896,1 55930U 23037S   23136.93583440  .00009086  00000-0  77204-4 0  9995,2 55930  70.0031  11.9110 0003141 259.0711 101.0131 15.69939945  9974,6737.206,91.723,361.187,356.955,0.0
55930.0,STARLINK-5896,PAYLOAD,2023-05-17 01:31:06,15.69904025,0.0002695,70.0029,11.5515,264.1896,95.8993,-0.00011431,-0.00013921,0.0,0 STARLINK-5896,1 55930U 23037S   23137.06326810 -.00013921  00000-0 -11431-3 0  9990,2 55930  70.0029  11.5515 0002695 264.1896  95.8993 15.69904025  9999,6737.309,91.725,360.989,357.358,0.0
55930.0,STARLINK-5896,PAYLOAD,2023-05-17 18:20:24,15.69889851,0.0003322,70.0011,9.5801,268.409,91.6725,-8.7729e-05,-0.00010733,0.0,0 STARLINK-5896,1 55930U 23037S   23137.76416762 -.00010733  00000-0 -87729-4 0  9995,2 55930  70.0011   9.5801 0003322 268.4090  91.6725 15.69889851  9767,6737.349,91.726,361.452,356.976,0.0
